[{"OBJECT_NAME":"TK-2","OBJECT_ID":"2022-031A","EPOCH":"2026-03-09T22:51:17.143200","MEAN_MOTION":15.02943491,"ECCENTRICITY":0.00164117,"INCLINATION":97.8366,"RA_OF_ASC_NODE":263.9365,"ARG_OF_PERICENTER":100.3205,"MEAN_ANOMALY":259.9871,"EPHEMERIS_TYPE":0,"CLASSIFICATION_TYPE":"U","NORAD_CAT_ID":52150,"ELEMENT_SET_NO":999,"REV_AT_EPOCH":21555,"BSTAR":0.00040164474,"MEAN_MOTION_DOT":5.349e-5,"MEAN_MOTION_DDOT":0},{"OBJECT_NAME":"STARLINK-31026","OBJECT_ID":"2023-191A","EPOCH":"2026-03-09T18:55:44.334912","MEAN_MOTION":15.02546182,"ECCENTRICITY":0.00010954,"INCLINATION":43.0033,"RA_OF_ASC_NODE":106.5212,"ARG_OF_PERICENTER":273.098,"MEAN_ANOMALY":86.9737,"EPHEMERIS_TYPE":0,"CLASSIFICATION_TYPE":"U","NORAD_CAT_ID":58508,"ELEMENT_SET_NO":999,"REV_AT_EPOCH":12544,"BSTAR":-0.00010273813,"MEAN_MOTION_DOT":-1.591e-5,"MEAN_MOTION_DDOT":0}]
